[{"OBJECT_NAME":"RANGE-A","OBJECT_ID":"2018-099R","EPOCH":"2026-03-09T16:56:29.908608","MEAN_MOTION":15.1245864,"ECCENTRICITY":0.00096737,"INCLINATION":97.4107,"RA_OF_ASC_NODE":114.1927,"ARG_OF_PERICENTER":340.4473,"MEAN_ANOMALY":19.6386,"EPHEMERIS_TYPE":0,"CLASSIFICATION_TYPE":"U","NORAD_CAT_ID":43773,"ELEMENT_SET_NO":999,"REV_AT_EPOCH":39745,"BSTAR":0.00032165687,"MEAN_MOTION_DOT":5.536e-5,"MEAN_MOTION_DDOT":0},{"OBJECT_NAME":"STARLINK-3798","OBJECT_ID":"2022-045AS","EPOCH":"2026-03-09T13:39:53.237952","MEAN_MOTION":15.08836847,"ECCENTRICITY":0.0001206,"INCLINATION":53.2176,"RA_OF_ASC_NODE":189.673,"ARG_OF_PERICENTER":88.5315,"MEAN_ANOMALY":271.5816,"EPHEMERIS_TYPE":0,"CLASSIFICATION_TYPE":"U","NORAD_CAT_ID":52371,"ELEMENT_SET_NO":999,"REV_AT_EPOCH":21589,"BSTAR":-3.1608e-5,"MEAN_MOTION_DOT":-7.91e-6,"MEAN_MOTION_DDOT":0}]
