RANGE-A                 
1 43773U 18099R   26068.70590171  .00005536  00000+0  32166-3 0  9992
2 43773  97.4107 114.1927 0009674 340.4473  19.6386 15.12458640397457
STARLINK-3798           
1 52371U 22045AS  26068.56936618 -.00000791  00000+0 -31608-4 0  9997
2 52371  53.2176 189.6730 0001206  88.5315 271.5816 15.08836847215892
